[{"OBJECT_NAME":"STARLINK-36673","OBJECT_ID":"2026-022N","EPOCH":"2026-03-09T22:00:01.999584","MEAN_MOTION":15.68090398,"ECCENTRICITY":0.00015368,"INCLINATION":97.2847,"RA_OF_ASC_NODE":102.9137,"ARG_OF_PERICENTER":67.9373,"MEAN_ANOMALY":350.2216,"EPHEMERIS_TYPE":0,"CLASSIFICATION_TYPE":"U","NORAD_CAT_ID":67660,"ELEMENT_SET_NO":999,"REV_AT_EPOCH":608,"BSTAR":-0.019532863,"MEAN_MOTION_DOT":-0.0191887,"MEAN_MOTION_DDOT":0},{"OBJECT_NAME":"CZ-2D R\/B","OBJECT_ID":"2005-024B","EPOCH":"2026-03-09T23:10:57.439776","MEAN_MOTION":15.60174792,"ECCENTRICITY":0.00057619,"INCLINATION":97.3602,"RA_OF_ASC_NODE":84.1217,"ARG_OF_PERICENTER":46.1998,"MEAN_ANOMALY":313.9735,"EPHEMERIS_TYPE":0,"CLASSIFICATION_TYPE":"U","NORAD_CAT_ID":28738,"ELEMENT_SET_NO":999,"REV_AT_EPOCH":13982,"BSTAR":0.00056460986,"MEAN_MOTION_DOT":0.00046014,"MEAN_MOTION_DDOT":0}]
